[{"OBJECT_NAME":"STARLINK-31640","OBJECT_ID":"2024-090U","EPOCH":"2026-03-09T07:46:26.896224","MEAN_MOTION":15.2757173,"ECCENTRICITY":0.00018596,"INCLINATION":42.9976,"RA_OF_ASC_NODE":185.5973,"ARG_OF_PERICENTER":191.7433,"MEAN_ANOMALY":168.3375,"EPHEMERIS_TYPE":0,"CLASSIFICATION_TYPE":"U","NORAD_CAT_ID":59748,"ELEMENT_SET_NO":999,"REV_AT_EPOCH":10338,"BSTAR":-2.9843135e-5,"MEAN_MOTION_DOT":-1.083e-5,"MEAN_MOTION_DDOT":0},{"OBJECT_NAME":"FLOCK 4G-6","OBJECT_ID":"2025-009BD","EPOCH":"2026-03-09T17:03:16.973568","MEAN_MOTION":15.27432125,"ECCENTRICITY":0.00023795,"INCLINATION":97.398,"RA_OF_ASC_NODE":150.7943,"ARG_OF_PERICENTER":348.2637,"MEAN_ANOMALY":11.8546,"EPHEMERIS_TYPE":0,"CLASSIFICATION_TYPE":"U","NORAD_CAT_ID":62660,"ELEMENT_SET_NO":999,"REV_AT_EPOCH":12130,"BSTAR":0.00045909501,"MEAN_MOTION_DOT":0.00012261,"MEAN_MOTION_DDOT":0}]
